ONEWEB-0349             
1 49281U 21090C   24275.82514503  .00000313  00000+0  73898-3 0  9998
2 49281  87.9268  38.4385 0001688 103.6610 256.4712 13.20771422147544
ONEWEB-0353             
1 49282U 21090D   24275.88218266 -.00000132  00000+0 -38990-3 0  9997
2 49282  87.8976  53.6534 0001769 105.7087 254.4238 13.14504245145691
ONEWEB-0356             
1 49283U 21090E   24275.82357432  .00000049  00000+0  88791-4 0  9991
2 49283  87.9268  38.4325 0000792 111.9280 248.1937 13.20772088147546
ONEWEB-0358             
1 49284U 21090F   24275.85354644  .00000040  00000+0  66385-4 0  9993
2 49284  87.9268  38.4137 0001467  93.8875 266.2426 13.20770135148272
ONEWEB-0359             
1 49285U 21090G   24275.85040902  .00000002  00000+0 -26228-4 0  9994
2 49285  87.9264  38.4308 0001876  85.7970 274.3378 13.20771319148258
ONEWEB-0360             
1 49286U 21090H   24275.84091692  .00000056  00000+0  10558-3 0  9992
2 49286  87.9268  38.4380 0001767  95.9058 264.2277 13.20769843147560
ONEWEB-0361             
1 49287U 21090J   24275.82199930  .00000038  00000+0  60437-4 0  9997
2 49287  87.9267  38.4368 0001628 103.9259 256.2056 13.20772474148016
ONEWEB-0362             
1 49288U 21090K   24275.88736791 -.00000008  00000+0 -51964-4 0  9990
2 49288  87.9122  68.9511 0001993  90.5489 269.5873 13.19722066144702
